$$SOE
2460728.500000000, A.D. 2025-Feb-22 00:00:00.0000, -4.332932441109763E+08, 9.054053190781645E+07, 8.997532362454003E+07,
2460735.500000000, A.D. 2025-Mar-01 00:00:00.0000, -4.353986205230061E+08, 8.006728392941442E+07, 8.918328162657605E+07,
2460742.500000000, A.D. 2025-Mar-08 00:00:00.0000, -4.372744690281591E+08, 6.955179434723745E+07, 8.834422598010841E+07,
2460749.500000000, A.D. 2025-Mar-15 00:00:00.0000, -4.389196529885507E+08, 5.899958436764685E+07, 8.745856956902367E+07,
2460756.500000000, A.D. 2025-Mar-22 00:00:00.0000, -4.403331821268179E+08, 4.841620697575902E+07, 8.652675560365391E+07,
2460763.500000000, A.D. 2025-Mar-29 00:00:00.0000, -4.415142145126811E+08, 3.780724044547558E+07, 8.554925723808290E+07,
2460770.500000000, A.D. 2025-Apr-05 00:00:00.0000, -4.424620566697468E+08, 2.717828269006428E+07, 8.452657706480280E+07,
2460777.500000000, A.D. 2025-Apr-12 00:00:00.0000, -4.431761637256266E+08, 1.653494656267300E+07, 8.345924667198852E+07,
2460784.500000000, A.D. 2025-Apr-19 00:00:00.0000, -4.436561397941386E+08, 5.882855232551713E+06, 8.234782621009463E+07,
2460791.500000000, A.D. 2025-Apr-26 00:00:00.0000, -4.439017383201810E+08, -4.772362556115765E+06, 8.119290392815699E+07,
2460798.500000000, A.D. 2025-May-03 00:00:00.0000, -4.439128622745613E+08, -1.542507731254607E+07, 7.999509567236204E+07,
2460805.500000000, A.D. 2025-May-10 00:00:00.0000, -4.436895641701885E+08, -2.606966369534427E+07, 7.875504434592842E+07,
2460812.500000000, A.D. 2025-May-17 00:00:00.0000, -4.432320458626526E+08, -3.670050550691218E+07, 7.747341932433188E+07,
2460819.500000000, A.D. 2025-May-24 00:00:00.0000, -4.425406579612403E+08, -4.731200083100548E+07, 7.615091580622505E+07,
2460826.500000000, A.D. 2025-May-31 00:00:00.0000, -4.416158984329106E+08, -5.789856699308735E+07, 7.478825408798231E+07,
2460833.500000000, A.D. 2025-Jun-07 00:00:00.0000, -4.404584108007181E+08, -6.845464412974514E+07, 7.338617889800830E+07,
2460840.500000000, A.D. 2025-Jun-14 00:00:00.0000, -4.390689843027675E+08, -7.897469802593867E+07, 7.194545895430396E+07,
2460847.500000000, A.D. 2025-Jun-21 00:00:00.0000, -4.374485547987810E+08, -8.945322548357147E+07, 7.046688636801878E+07,
2460854.500000000, A.D. 2025-Jun-28 00:00:00.0000, -4.355982033001350E+08, -9.988476044744340E+07, 6.895127575207859E+07,
2460861.500000000, A.D. 2025-Jul-05 00:00:00.0000, -4.335191536419982E+08, -1.102638787227878E+08, 6.739946335149547E+07,
2460868.500000000, A.D. 2025-Jul-12 00:00:00.0000, -4.312127704909017E+08, -1.205852020822681E+08, 6.581230624001198E+07,
2460875.500000000, A.D. 2025-Jul-19 00:00:00.0000, -4.286805575027402E+08, -1.308434023308683E+08, 6.419068152042010E+07,
2460882.500000000, A.D. 2025-Jul-26 00:00:00.0000, -4.259241554269021E+08, -1.410332053781702E+08, 6.253548550666682E+07,
2460889.500000000, A.D. 2025-Aug-02 00:00:00.0000, -4.229453400966743E+08, -1.511493952890764E+08, 6.084763288546944E+07,
2460896.500000000, A.D. 2025-Aug-09 00:00:00.0000, -4.197460202879465E+08, -1.611868183206267E+08, 5.912805585599796E+07,
2460903.500000000, A.D. 2025-Aug-16 00:00:00.0000, -4.163282353749393E+08, -1.711403870015939E+08, 5.737770323732280E+07,
2460910.500000000, A.D. 2025-Aug-23 00:00:00.0000, -4.126941524963287E+08, -1.810050842322311E+08, 5.559753952011351E+07,
2460917.500000000, A.D. 2025-Aug-30 00:00:00.0000, -4.088460629089361E+08, -1.907759666842809E+08, 5.378854389274994E+07,
2460924.500000000, A.D. 2025-Sep-06 00:00:00.0000, -4.047863789530213E+08, -2.004481664956413E+08, 5.195170945557421E+07,
2460931.500000000, A.D. 2025-Sep-13 00:00:00.0000, -4.005176333064016E+08, -2.100168937385112E+08, 5.008804257557567E+07,
2460938.500000000, A.D. 2025-Sep-20 00:00:00.0000, -3.960424772624872E+08, -2.194774413021881E+08, 4.819856194915990E+07,
2460945.500000000, A.D. 2025-Sep-27 00:00:00.0000, -3.913636769819871E+08, -2.288251890746544E+08, 4.628429753240367E+07,
2460952.500000000, A.D. 2025-Oct-04 00:00:00.0000, -3.864841097415327E+08, -2.380556068791374E+08, 4.434628956960527E+07,
2460959.500000000, A.D. 2025-Oct-11 00:00:00.0000, -3.814067605590349E+08, -2.471642571055235E+08, 4.238558767888920E+07,
2460966.500000000, A.D. 2025-Oct-18 00:00:00.0000, -3.761347189193188E+08, -2.561467973093048E+08, 4.040324994805020E+07,
2460973.500000000, A.D. 2025-Oct-25 00:00:00.0000, -3.706711754687405E+08, -2.649989827656725E+08, 3.840034203043082E+07,
2460980.500000000, A.D. 2025-Nov-01 00:00:00.0000, -3.650194186478175E+08, -2.737166689617341E+08, 3.637793624008012E+07,
2460987.500000000, A.D. 2025-Nov-08 00:00:00.0000, -3.591828312356359E+08, -2.822958140566896E+08, 3.433711064187749E+07,
2460994.500000000, A.D. 2025-Nov-15 00:00:00.0000, -3.531648866662825E+08, -2.907324813669384E+08, 3.227894811952342E+07,
2461001.500000000, A.D. 2025-Nov-22 00:00:00.0000, -3.469691447223036E+08, -2.990228416542051E+08, 3.020453540354489E+07,
2461008.500000000, A.D. 2025-Nov-29 00:00:00.0000, -3.405992467650387E+08, -3.071631740795544E+08, 2.811496216704714E+07,
2461015.500000000, A.D. 2025-Dec-06 00:00:00.0000, -3.340589127842708E+08, -3.151498659576753E+08, 2.601132038774928E+07,
2461022.500000000, A.D. 2025-Dec-13 00:00:00.0000, -3.273519398382733E+08, -3.229794146825760E+08, 2.389470366192782E+07,
2461029.500000000, A.D. 2025-Dec-20 00:00:00.0000, -3.204821983976447E+08, -3.306484308046149E+08, 2.176620623464717E+07,
2461036.500000000, A.D. 2025-Dec-27 00:00:00.0000, -3.134536276744907E+08, -3.381536396704176E+08, 1.962692205783163E+07,
2461043.500000000, A.D. 2026-Jan-03 00:00:00.0000, -3.062702314037985E+08, -3.454918822431795E+08, 1.747794396087538E+07,
2461050.500000000, A.D. 2026-Jan-10 00:00:00.0000, -2.989360739743962E+08, -3.526601157838286E+08, 1.532036286922762E+07,
2461057.500000000, A.D. 2026-Jan-17 00:00:00.0000, -2.914552766836098E+08, -3.596554144863193E+08, 1.315526704300387E+07,
2461064.500000000, A.D. 2026-Jan-24 00:00:00.0000, -2.838320140440379E+08, -3.664749700463106E+08, 1.098374133115880E+07,
2461071.500000000, A.D. 2026-Jan-31 00:00:00.0000, -2.760705101250086E+08, -3.731160921725917E+08, 8.806866439259127E+06,
2461078.500000000, A.D. 2026-Feb-07 00:00:00.0000, -2.681750348727001E+08, -3.795762091006038E+08, 6.625718201261789E+06,
2461085.500000000, A.D. 2026-Feb-14 00:00:00.0000, -2.601499001609126E+08, -3.858528681256307E+08, 4.441366831487328E+06,
2461092.500000000, A.D. 2026-Feb-21 00:00:00.0000, -2.519994551896749E+08, -3.919437355811913E+08, 2.254876168986291E+06,
2461099.500000000, A.D. 2026-Feb-28 00:00:00.0000, -2.437280823208070E+08, -3.978465951117725E+08, 6.730310856863856E+04,
2461106.500000000, A.D. 2026-Mar-07 00:00:00.0000, -2.353401954124748E+08, -4.035593461929015E+08, -2.120302751665503E+06,
2461113.500000000, A.D. 2026-Mar-14 00:00:00.0000, -2.268402378805382E+08, -4.090800052359011E+08, -4.306899691213042E+06,
2461120.500000000, A.D. 2026-Mar-21 00:00:00.0000, -2.182326787081783E+08, -4.144067063847058E+08, -6.491454602815539E+06,
2461127.500000000, A.D. 2026-Mar-28 00:00:00.0000, -2.095220084174074E+08, -4.195377009804856E+08, -8.672943614148855E+06,
2461134.500000000, A.D. 2026-Apr-04 00:00:00.0000, -2.007127356095482E+08, -4.244713566635231E+08, -1.085035261880231E+07,
2461141.500000000, A.D. 2026-Apr-11 00:00:00.0000, -1.918093838034294E+08, -4.292061564761867E+08, -1.302267777085820E+07,
2461148.500000000, A.D. 2026-Apr-18 00:00:00.0000, -1.828164884141406E+08, -4.337406979780762E+08, -1.518892595807979E+07,
2461155.500000000, A.D. 2026-Apr-25 00:00:00.0000, -1.737385938284652E+08, -4.380736923636031E+08, -1.734811525662839E+07,
2461162.500000000, A.D. 2026-May-02 00:00:00.0000, -1.645802505483434E+08, -4.422039636168104E+08, -1.949927537251595E+07,
2461169.500000000, A.D. 2026-May-09 00:00:00.0000, -1.553460122797947E+08, -4.461304477746048E+08, -2.164144808665901E+07,
2461176.500000000, A.D. 2026-May-16 00:00:00.0000, -1.460404325911920E+08, -4.498521921646308E+08, -2.377368772698867E+07,
2461183.500000000, A.D. 2026-May-23 00:00:00.0000, -1.366680610906822E+08, -4.533683535994998E+08, -2.589506158897611E+07,
2461190.500000000, A.D. 2026-May-30 00:00:00.0000, -1.272334412022968E+08, -4.566781952111113E+08, -2.800465008802482E+07,
2461197.500000000, A.D. 2026-Jun-06 00:00:00.0000, -1.177411098581922E+08, -4.597810852017676E+08, -3.010154688245657E+07,
2461204.500000000, A.D. 2026-Jun-13 00:00:00.0000, -1.081955954409407E+08, -4.626764973176352E+08, -3.218485928753552E+07,
2461211.500000000, A.D. 2026-Jun-20 00:00:00.0000, -9.860141447724515E+07, -4.653640101235051E+08, -3.425370869598162E+07,
2461218.500000000, A.D. 2026-Jun-27 00:00:00.0000, -8.896306878169079E+07, -4.678433054232499E+08, -3.630723087755334E+07,
2461225.500000000, A.D. 2026-Jul-04 00:00:00.0000, -7.928504305061382E+07, -4.701141666052155E+08, -3.834457622170177E+07,
2461232.500000000, A.D. 2026-Jul-11 00:00:00.0000, -6.957180265205316E+07, -4.721764770488186E+08, -4.036490995815724E+07,
2461239.500000000, A.D. 2026-Jul-18 00:00:00.0000, -5.982779151895713E+07, -4.740302185709537E+08, -4.236741236272466E+07,
2461246.500000000, A.D. 2026-Jul-25 00:00:00.0000, -5.005743012118821E+07, -4.756754699137567E+08, -4.435127895119944E+07,
2461253.500000000, A.D. 2026-Aug-01 00:00:00.0000, -4.026511346845449E+07, -4.771124053257585E+08, -4.631572067055225E+07,
2461260.500000000, A.D. 2026-Aug-08 00:00:00.0000, -3.045520892954665E+07, -4.783412932753854E+08, -4.825996411062101E+07,
2461267.500000000, A.D. 2026-Aug-15 00:00:00.0000, -2.063205345258872E+07, -4.793624948486279E+08, -5.018325173796597E+07,
2461274.500000000, A.D. 2026-Aug-22 00:00:00.0000, -1.079995094626925E+07, -4.801764606113702E+08, -5.208484198258501E+07,
2461281.500000000, A.D. 2026-Aug-29 00:00:00.0000, -9.631721091784042E+05, -4.807837273108916E+08, -5.396400908010161E+07,
2461288.500000000, A.D. 2026-Sep-05 00:00:00.0000, 8.874045428956890E+06, -4.811849172875707E+08, -5.582004310016051E+07,
$$EOE